{
  "type": "FeatureCollection",
  "name": "park-regions",
  "features": [
    {
      "type": "Feature",
      "id": "groupA",
      "properties": {
        "id": "groupA",
        "group": "groupA",
        "name": "Grupo A — Setor Noroeste & Acesso",
        "shortName": "Grupo A",
        "color": "#eab308",
        "fillOpacity": 0.28,
        "strokeColor": "#facc15",
        "strokeWidth": 2.5,
        "description": "Faixa norte compreendendo a rodovia BR-174, área verde e acesso principal aos prédios.",
        "treeCount": 4
      },
      "geometry": {
        "type": "Polygon",
        "coordinates": [
          [
            [-60.12285, -12.70535],
            [-60.12085, -12.70545],
            [-60.12080, -12.70670],
            [-60.12290, -12.70645],
            [-60.12285, -12.70535]
          ]
        ]
      }
    },
    {
      "type": "Feature",
      "id": "groupB",
      "properties": {
        "id": "groupB",
        "group": "groupB",
        "name": "Grupo B — Setor Predial, Pátio & Bosque Leste",
        "shortName": "Grupo B",
        "color": "#3b82f6",
        "fillOpacity": 0.28,
        "strokeColor": "#60a5fa",
        "strokeWidth": 2.5,
        "description": "Complexo predial, pátio leste e bloco de mata fechada a nordeste do lago.",
        "treeCount": 4
      },
      "geometry": {
        "type": "Polygon",
        "coordinates": [
          [
            [-60.12085, -12.70545],
            [-60.11930, -12.70550],
            [-60.11915, -12.70660],
            [-60.11985, -12.70715],
            [-60.12075, -12.70660],
            [-60.12085, -12.70545]
          ]
        ]
      }
    },
    {
      "type": "Feature",
      "id": "groupC",
      "properties": {
        "id": "groupC",
        "group": "groupC",
        "name": "Grupo C — Margem Sul do Lago & Mata Ciliar",
        "shortName": "Grupo C",
        "color": "#ef4444",
        "fillOpacity": 0.32,
        "strokeColor": "#f87171",
        "strokeWidth": 2.8,
        "description": "Faixa ciliar contornando toda a margem sul do lago e subindo na mata preservada a leste.",
        "treeCount": 5
      },
      "geometry": {
        "type": "Polygon",
        "coordinates": [
          [
            [-60.12255, -12.70705],
            [-60.12150, -12.70785],
            [-60.12040, -12.70825],
            [-60.11935, -12.70750],
            [-60.11915, -12.70685],
            [-60.12025, -12.70775],
            [-60.12140, -12.70755],
            [-60.12215, -12.70700],
            [-60.12255, -12.70705]
          ]
        ]
      }
    }
  ]
}
