{
  "type": "FeatureCollection",
  "name": "park-exploration-botanica",
  "features": [
    {
      "type": "Feature",
      "properties": {
        "id": "exp-zona-ciliar",
        "name": "Mata Ciliar e Área de Preservação Permanente (APP)",
        "zoneType": "preservacao",
        "color": "#166534",
        "opacity": 0.22
      },
      "geometry": {
        "type": "Polygon",
        "coordinates": [
          [
            [-60.12240, -12.70710],
            [-60.12150, -12.70780],
            [-60.12020, -12.70785],
            [-60.12010, -12.70700],
            [-60.12040, -12.70620],
            [-60.12240, -12.70610],
            [-60.12240, -12.70710]
          ]
        ]
      }
    },
    {
      "type": "Feature",
      "properties": {
        "id": "exp-poi-passarela",
        "name": "Passarela Transversal de Madeira",
        "category": "mirante",
        "elevation": "610m"
      },
      "geometry": {
        "type": "Point",
        "coordinates": [-60.12150, -12.70728]
      }
    },
    {
      "type": "Feature",
      "properties": {
        "id": "exp-poi-lago",
        "name": "Espelho d'Água do Lago",
        "category": "recurso_hidrico",
        "elevation": "608m"
      },
      "geometry": {
        "type": "Point",
        "coordinates": [-60.12135, -12.70730]
      }
    },
    {
      "type": "Feature",
      "properties": {
        "id": "exp-poi-parquinho",
        "name": "Parquinho Infantil (Setor Grupo B)",
        "category": "convivencia",
        "elevation": "611m"
      },
      "geometry": {
        "type": "Point",
        "coordinates": [-60.12080, -12.70682]
      }
    }
  ]
}
